{
  "links" : {
    "next" : "https://api.nasa.gov/neo/rest/v1/feed?start_date=2000-05-16&end_date=2000-05-16&detailed=true&api_key=t0TVs3DtDT2H8Oy2Zy8m2eVrNsAVKAexjcZXUckd",
    "prev" : "https://api.nasa.gov/neo/rest/v1/feed?start_date=2000-05-14&end_date=2000-05-14&detailed=true&api_key=t0TVs3DtDT2H8Oy2Zy8m2eVrNsAVKAexjcZXUckd",
    "self" : "https://api.nasa.gov/neo/rest/v1/feed?start_date=2000-05-15&end_date=2000-05-15&detailed=true&api_key=t0TVs3DtDT2H8Oy2Zy8m2eVrNsAVKAexjcZXUckd"
  },
  "element_count" : 7,
  "near_earth_objects" : {
    "2000-05-15" : [ {
      "links" : {
        "self" : "https://api.nasa.gov/neo/rest/v1/neo/2162433?api_key=t0TVs3DtDT2H8Oy2Zy8m2eVrNsAVKAexjcZXUckd"
      },
      "neo_reference_id" : "2162433",
      "name" : "162433 (2000 FK10)",
      "nasa_jpl_url" : "http://ssd.jpl.nasa.gov/sbdb.cgi?sstr=2162433",
      "absolute_magnitude_h" : 19.2,
      "estimated_diameter" : {
        "kilometers" : {
          "estimated_diameter_min" : 0.3841978911,
          "estimated_diameter_max" : 0.8590926012
        },
        "meters" : {
          "estimated_diameter_min" : 384.1978910643,
          "estimated_diameter_max" : 859.0926012318
        },
        "miles" : {
          "estimated_diameter_min" : 0.2387294278,
          "estimated_diameter_max" : 0.5338152287
        },
        "feet" : {
          "estimated_diameter_min" : 1260.4918089193,
          "estimated_diameter_max" : 2818.5453698252
        }
      },
      "is_potentially_hazardous_asteroid" : false,
      "close_approach_data" : [ {
        "close_approach_date" : "2000-05-15",
        "epoch_date_close_approach" : 958374000000,
        "relative_velocity" : {
          "kilometers_per_second" : "12.3157992666",
          "kilometers_per_hour" : "44336.8773598453",
          "miles_per_hour" : "27549.2113795106"
        },
        "miss_distance" : {
          "astronomical" : "0.2315560549",
          "lunar" : "90.0753097534",
          "kilometers" : "34640292",
          "miles" : "21524480"
        },
        "orbiting_body" : "Earth"
      } ],
      "orbital_data" : {
        "orbit_id" : "38",
        "orbit_determination_date" : "2017-04-06 09:26:30",
        "orbit_uncertainty" : "0",
        "minimum_orbit_intersection" : ".0659272",
        "jupiter_tisserand_invariant" : "4.698",
        "epoch_osculation" : "2458000.5",
        "eccentricity" : ".4814343543625919",
        "semi_major_axis" : "1.359031169441268",
        "inclination" : "13.94234845411158",
        "ascending_node_longitude" : "41.69124016227254",
        "orbital_period" : "578.6854367212633",
        "perihelion_distance" : ".7047468758226727",
        "perihelion_argument" : "246.9719827594768",
        "aphelion_distance" : "2.013315463059862",
        "perihelion_time" : "2458082.226661151621",
        "mean_anomaly" : "309.1578737815115",
        "mean_motion" : ".6220996367900684",
        "equinox" : "J2000"
      }
    }, {
      "links" : {
        "self" : "https://api.nasa.gov/neo/rest/v1/neo/2415745?api_key=t0TVs3DtDT2H8Oy2Zy8m2eVrNsAVKAexjcZXUckd"
      },
      "neo_reference_id" : "2415745",
      "name" : "415745 (2000 GV147)",
      "nasa_jpl_url" : "http://ssd.jpl.nasa.gov/sbdb.cgi?sstr=2415745",
      "absolute_magnitude_h" : 19.3,
      "estimated_diameter" : {
        "kilometers" : {
          "estimated_diameter_min" : 0.3669061375,
          "estimated_diameter_max" : 0.8204270649
        },
        "meters" : {
          "estimated_diameter_min" : 366.9061375314,
          "estimated_diameter_max" : 820.4270648822
        },
        "miles" : {
          "estimated_diameter_min" : 0.2279848336,
          "estimated_diameter_max" : 0.5097895857
        },
        "feet" : {
          "estimated_diameter_min" : 1203.7603322587,
          "estimated_diameter_max" : 2691.6899315481
        }
      },
      "is_potentially_hazardous_asteroid" : true,
      "close_approach_data" : [ {
        "close_approach_date" : "2000-05-15",
        "epoch_date_close_approach" : 958374000000,
        "relative_velocity" : {
          "kilometers_per_second" : "14.1016108036",
          "kilometers_per_hour" : "50765.7988927994",
          "miles_per_hour" : "31543.8932064731"
        },
        "miss_distance" : {
          "astronomical" : "0.1389411569",
          "lunar" : "54.0481071472",
          "kilometers" : "20785300",
          "miles" : "12915387"
        },
        "orbiting_body" : "Earth"
      } ],
      "orbital_data" : {
        "orbit_id" : "44",
        "orbit_determination_date" : "2017-04-06 09:21:26",
        "orbit_uncertainty" : "0",
        "minimum_orbit_intersection" : ".00216071",
        "jupiter_tisserand_invariant" : "3.993",
        "epoch_osculation" : "2458000.5",
        "eccentricity" : ".4564588448118628",
        "semi_major_axis" : "1.746303935467544",
        "inclination" : "10.56588193981245",
        "ascending_node_longitude" : "68.68982085461916",
        "orbital_period" : "842.904118743062",
        "perihelion_distance" : ".9491880583936187",
        "perihelion_argument" : "216.0417140321555",
        "aphelion_distance" : "2.543419812541468",
        "perihelion_time" : "2457616.601569479990",
        "mean_anomaly" : "163.9610388822072",
        "mean_motion" : ".427094840320429",
        "equinox" : "J2000"
      }
    }, {
      "links" : {
        "self" : "https://api.nasa.gov/neo/rest/v1/neo/3151655?api_key=t0TVs3DtDT2H8Oy2Zy8m2eVrNsAVKAexjcZXUckd"
      },
      "neo_reference_id" : "3151655",
      "name" : "(2003 FY6)",
      "nasa_jpl_url" : "http://ssd.jpl.nasa.gov/sbdb.cgi?sstr=3151655",
      "absolute_magnitude_h" : 22.4,
      "estimated_diameter" : {
        "kilometers" : {
          "estimated_diameter_min" : 0.0880146521,
          "estimated_diameter_max" : 0.1968067451
        },
        "meters" : {
          "estimated_diameter_min" : 88.0146520901,
          "estimated_diameter_max" : 196.8067450894
        },
        "miles" : {
          "estimated_diameter_min" : 0.0546897524,
          "estimated_diameter_max" : 0.122290004
        },
        "feet" : {
          "estimated_diameter_min" : 288.7619911632,
          "estimated_diameter_max" : 645.6914415591
        }
      },
      "is_potentially_hazardous_asteroid" : false,
      "close_approach_data" : [ {
        "close_approach_date" : "2000-05-15",
        "epoch_date_close_approach" : 958374000000,
        "relative_velocity" : {
          "kilometers_per_second" : "17.9285455526",
          "kilometers_per_hour" : "64542.7639892466",
          "miles_per_hour" : "40104.3635465405"
        },
        "miss_distance" : {
          "astronomical" : "0.146701399",
          "lunar" : "57.0668411255",
          "kilometers" : "21946216",
          "miles" : "13636747"
        },
        "orbiting_body" : "Earth"
      } ],
      "orbital_data" : {
        "orbit_id" : "22",
        "orbit_determination_date" : "2017-04-06 09:14:13",
        "orbit_uncertainty" : "1",
        "minimum_orbit_intersection" : ".00341163",
        "jupiter_tisserand_invariant" : "7.733",
        "epoch_osculation" : "2458000.5",
        "eccentricity" : ".5820928669232597",
        "semi_major_axis" : ".7300342420693026",
        "inclination" : "6.604606154991182",
        "ascending_node_longitude" : "359.2873158856723",
        "orbital_period" : "227.8312397941655",
        "perihelion_distance" : ".3050865171510333",
        "perihelion_argument" : "29.56892377631691",
        "aphelion_distance" : "1.154981966987572",
        "perihelion_time" : "2457898.856231345907",
        "mean_anomaly" : "160.6090400444316",
        "mean_motion" : "1.58011693359191",
        "equinox" : "J2000"
      }
    } ]
  }
}